[{"OBJECT_NAME":"GHGSAT-C2","OBJECT_ID":"2021-006DA","EPOCH":"2026-03-09T16:22:36.229728","MEAN_MOTION":15.36517997,"ECCENTRICITY":0.00061235,"INCLINATION":97.2293,"RA_OF_ASC_NODE":117.6581,"ARG_OF_PERICENTER":150.646,"MEAN_ANOMALY":209.513,"EPHEMERIS_TYPE":0,"CLASSIFICATION_TYPE":"U","NORAD_CAT_ID":47509,"ELEMENT_SET_NO":999,"REV_AT_EPOCH":28456,"BSTAR":0.00026516759,"MEAN_MOTION_DOT":9.377e-5,"MEAN_MOTION_DDOT":0},{"OBJECT_NAME":"KUIPER-00198","OBJECT_ID":"2026-030G","EPOCH":"2026-03-09T15:03:31.007808","MEAN_MOTION":15.3608915,"ECCENTRICITY":0.0003583,"INCLINATION":51.8806,"RA_OF_ASC_NODE":219.4038,"ARG_OF_PERICENTER":35.8948,"MEAN_ANOMALY":324.2279,"EPHEMERIS_TYPE":0,"CLASSIFICATION_TYPE":"U","NORAD_CAT_ID":67770,"ELEMENT_SET_NO":999,"REV_AT_EPOCH":508,"BSTAR":0.00095567,"MEAN_MOTION_DOT":0.00033885,"MEAN_MOTION_DDOT":0}]
