GHGSAT-C2               
1 47509U 21006DA  26068.68236376  .00009377  00000+0  26517-3 0  9996
2 47509  97.2293 117.6581 0006123 150.6460 209.5130 15.36517997284560
KUIPER-00198            
1 67770U 26030G   26068.62744222  .00033885  00000+0  95567-3 0  9990
2 67770  51.8806 219.4038 0003583  35.8948 324.2279 15.36089150  5080
